NORAD_CAT_ID,OBJECT_NAME,OBJECT_TYPE,EPOCH,MEAN_MOTION,ECCENTRICITY,INCLINATION,RA_OF_ASC_NODE,ARG_OF_PERICENTER,MEAN_ANOMALY,BSTAR,MEAN_MOTION_DOT,MEAN_MOTION_DDOT,TLE_LINE0,TLE_LINE1,TLE_LINE2,SEMIMAJOR_AXIS,PERIOD,APOGEE,PERIGEE,DECAYED
50829.0,STARLINK-3294,PAYLOAD,2023-07-28 04:27:51,15.08832017,0.0001281,53.2165,138.5468,109.5819,250.5311,-9.0036e-05,-1.72e-05,0.0,0 STARLINK-3294,1 50829U 22001AC  23209.18601566 -.00001720  00000-0 -90036-4 0  9992,2 50829  53.2165 138.5468 0001281 109.5819 250.5311 15.08832017 86150,6917.905,95.438,540.656,538.884,0.0
50829.0,STARLINK-3294,PAYLOAD,2023-07-29 02:43:15,15.0884712,0.0001154,53.2164,134.3827,105.9705,254.1414,0.00014671,2.048e-05,0.0,0 STARLINK-3294,1 50829U 22001AC  23210.11337125  .00002048  00000-0  14671-3 0  9996,2 50829  53.2164 134.3827 0001154 105.9705 254.1414 15.08847120 87566,6917.859,95.437,540.522,538.925,0.0
50829.0,STARLINK-3294,PAYLOAD,2023-07-29 12:15:34,15.08842631,9.7e-05,53.2153,132.5963,100.1845,259.9256,4.5611e-05,4.38e-06,0.0,0 STARLINK-3294,1 50829U 22001AC  23210.51081277  .00000438  00000-0  45611-4 0  9994,2 50829  53.2153 132.5963 0000970 100.1845 259.9256 15.08842631 87628,6917.872,95.437,540.408,539.066,0.0
50829.0,STARLINK-3294,PAYLOAD,2023-07-30 18:27:54,15.08844502,0.0001274,53.2159,126.947,108.8174,251.2957,-8.5178e-05,-1.643e-05,0.0,0 STARLINK-3294,1 50829U 22001AC  23211.76937694 -.00001643  00000-0 -85178-4 0  9998,2 50829  53.2159 126.9470 0001274 108.8174 251.2957 15.08844502 87815,6917.867,95.437,540.613,538.85,0.0
50829.0,STARLINK-3294,PAYLOAD,2023-07-31 04:00:12,15.08856341,0.0001255,53.2168,125.1631,111.0161,249.0965,-0.0001129,-2.085e-05,0.0,0 STARLINK-3294,1 50829U 22001AC  23212.16681231 -.00002085  00000-0 -11290-3 0  9990,2 50829  53.2168 125.1631 0001255 111.0161 249.0965 15.08856341 87870,6917.83,95.437,540.564,538.827,0.0
50829.0,STARLINK-3294,PAYLOAD,2023-07-31 18:18:41,15.08838163,0.00013,53.2167,122.4865,99.8096,260.3043,2.4622e-05,1.04e-06,0.0,0 STARLINK-3294,1 50829U 22001AC  23212.76298183  .00000104  00000-0  24622-4 0  9998,2 50829  53.2167 122.4865 0001300  99.8096 260.3043 15.08838163 87964,6917.886,95.438,540.65,538.852,0.0
50829.0,STARLINK-3294,PAYLOAD,2023-08-02 02:06:24,15.08843538,0.0001202,53.2173,116.5402,93.6508,266.4621,0.00010197,1.336e-05,0.0,0 STARLINK-3294,1 50829U 22001AC  23214.08777841  .00001336  00000-0  10197-3 0  9997,2 50829  53.2173 116.5402 0001202  93.6508 266.4621 15.08843538 88167,6917.87,95.437,540.566,538.903,0.0
50829.0,STARLINK-3294,PAYLOAD,2023-08-03 03:32:33,15.08858566,0.0001273,53.2184,111.7823,93.0774,267.0364,5.6517e-05,6.12e-06,0.0,0 STARLINK-3294,1 50829U 22001AC  23215.14761000  .00000612  00000-0  56517-4 0  9998,2 50829  53.2184 111.7823 0001273  93.0774 267.0364 15.08858566 88326,6917.824,95.436,540.569,538.808,0.0
50829.0,STARLINK-3294,PAYLOAD,2023-08-04 01:47:58,15.08832753,0.0001005,53.2165,107.6172,85.9007,274.2099,-9.1248e-05,-1.739e-05,0.0,0 STARLINK-3294,1 50829U 22001AC  23216.07498613 -.00001739  00000-0 -91248-4 0  9991,2 50829  53.2165 107.6172 0001005  85.9007 274.2099 15.08832753 88468,6917.903,95.438,540.463,539.072,0.0
50829.0,STARLINK-3294,PAYLOAD,2023-08-05 01:38:45,15.08850364,9.77e-05,53.2166,103.1564,87.1514,272.959,0.00015833,2.234e-05,0.0,0 STARLINK-3294,1 50829U 22001AC  23217.06858070  .00002234  00000-0  15833-3 0  9992,2 50829  53.2166 103.1564 0000977  87.1514 272.9590 15.08850364 88615,6917.849,95.437,540.39,539.038,0.0
50829.0,STARLINK-3294,PAYLOAD,2023-08-06 09:26:28,15.08832383,0.000199,53.2161,97.2101,77.3361,282.7853,-0.00035591,-5.947e-05,0.0,0 STARLINK-3294,1 50829U 22001AC  23218.39338479 -.00005947  00000-0 -35591-3 0  9994,2 50829  53.2161  97.2101 0001990  77.3361 282.7853 15.08832383 88811,6917.904,95.438,541.145,538.392,0.0
50829.0,STARLINK-3294,PAYLOAD,2023-08-07 01:20:20,15.08816503,9.56e-05,53.2158,94.2365,80.1641,279.9459,-0.00034066,-5.702e-05,0.0,0 STARLINK-3294,1 50829U 22001AC  23219.05579570 -.00005702  00000-0 -34066-3 0  9992,2 50829  53.2158  94.2365 0000956  80.1641 279.9459 15.08816503 88917,6917.952,95.439,540.479,539.156,0.0
50829.0,STARLINK-3294,PAYLOAD,2023-08-07 18:49:35,15.08833538,0.0001015,53.2163,90.9665,72.0137,288.0966,0.0008066,0.0001257,0.0,0 STARLINK-3294,1 50829U 22001AC  23219.78444377  .00012570  00000-0  80660-3 0  9998,2 50829  53.2163  90.9665 0001015  72.0137 288.0966 15.08833538 89020,6917.9,95.438,540.467,539.063,0.0
50829.0,STARLINK-3294,PAYLOAD,2023-08-08 01:11:08,15.08850109,0.0001017,53.2161,89.7776,61.9012,298.2083,0.0013993,0.00022058,0.0,0 STARLINK-3294,1 50829U 22001AC  23220.04940435  .00022058  00000-0  13993-2 0  9991,2 50829  53.2161  89.7776 0001017  61.9012 298.2083 15.08850109 89068,6917.849,95.437,540.418,539.011,0.0
50829.0,STARLINK-3294,PAYLOAD,2023-08-10 02:28:04,15.0885025,8.76e-05,53.2171,80.5591,75.2098,284.8991,0.00059402,9.181e-05,0.0,0 STARLINK-3294,1 50829U 22001AC  23222.10282535  .00009181  00000-0  59402-3 0  9998,2 50829  53.2171  80.5591 0000876  75.2098 284.8991 15.08850250 89377,6917.849,95.437,540.32,539.108,0.0
50829.0,STARLINK-3294,PAYLOAD,2023-08-10 07:14:13,15.08842938,7.89e-05,53.2169,79.6658,65.9253,294.1822,0.000387,5.877e-05,0.0,0 STARLINK-3294,1 50829U 22001AC  23222.30154665  .00005877  00000-0  38700-3 0  9998,2 50829  53.2169  79.6658 0000789  65.9253 294.1822 15.08842938 89404,6917.871,95.437,540.282,539.191,0.0
50829.0,STARLINK-3294,PAYLOAD,2023-08-10 21:32:42,15.08835057,9.61e-05,53.2173,76.9927,89.7357,270.3745,0.001293,0.00020347,0.0,0 STARLINK-3294,1 50829U 22001AC  23222.89771101  .00020347  00000-0  12930-2 0  9997,2 50829  53.2173  76.9927 0000961  89.7357 270.3745 15.08835057 89492,6917.895,95.438,540.425,539.096,0.0
50829.0,STARLINK-3294,PAYLOAD,2023-08-11 07:05:00,15.08840088,9.27e-05,53.216,75.2094,96.2937,263.8161,0.00029108,4.348e-05,0.0,0 STARLINK-3294,1 50829U 22001AC  23223.29514991  .00004348  00000-0  29108-3 0  9993,2 50829  53.2160  75.2094 0000927  96.2937 263.8161 15.08840088 89550,6917.88,95.438,540.386,539.104,0.0
50829.0,STARLINK-3294,PAYLOAD,2023-08-12 13:17:20,15.08840918,0.000103,53.2152,69.5568,89.6002,270.5108,0.00015399,2.164e-05,0.0,0 STARLINK-3294,1 50829U 22001AC  23224.55371074  .00002164  00000-0  15399-3 0  9997,2 50829  53.2152  69.5568 0001030  89.6002 270.5108 15.08840918 89747,6917.878,95.437,540.455,539.03,0.0
50829.0,STARLINK-3294,PAYLOAD,2023-08-13 19:29:40,15.08842198,0.0001035,53.2152,63.9068,90.7641,269.347,0.00014706,2.054e-05,0.0,0 STARLINK-3294,1 50829U 22001AC  23225.81227184  .00002054  00000-0  14706-3 0  9998,2 50829  53.2152  63.9068 0001035  90.7641 269.3470 15.08842198 89938,6917.874,95.437,540.455,539.023,0.0
50829.0,STARLINK-3294,PAYLOAD,2023-08-14 20:55:50,15.0884519,9.55e-05,53.2169,59.1513,80.2804,279.8296,0.00012477,1.699e-05,0.0,0 STARLINK-3294,1 50829U 22001AC  23226.87211117  .00001699  00000-0  12477-3 0  9991,2 50829  53.2169  59.1513 0000955  80.2804 279.8296 15.08845190 90099,6917.865,95.437,540.39,539.069,0.0
50829.0,STARLINK-3294,PAYLOAD,2023-08-15 22:22:00,15.08844897,0.0001067,53.2171,54.3921,87.4764,272.635,0.0001494,2.091e-05,0.0,0 STARLINK-3294,1 50829U 22001AC  23227.93195078  .00002091  00000-0  14940-3 0  9990,2 50829  53.2171  54.3921 0001067  87.4764 272.6350 15.08844897 90254,6917.865,95.437,540.469,538.992,0.0
50829.0,STARLINK-3294,PAYLOAD,2023-08-16 19:02:01,15.08840394,0.000114,53.215,50.5259,90.7749,269.3374,7.5774e-05,9.18e-06,0.0,0 STARLINK-3294,1 50829U 22001AC  23228.79307296  .00000918  00000-0  75774-4 0  9991,2 50829  53.2150  50.5259 0001140  90.7749 269.3374 15.08840394 90386,6917.879,95.438,540.533,538.956,0.0
50829.0,STARLINK-3294,PAYLOAD,2023-08-17 22:03:34,15.08845045,0.000113,53.2147,45.4707,91.5966,268.5155,0.00013694,1.893e-05,0.0,0 STARLINK-3294,1 50829U 22001AC  23229.91914852  .00001893  00000-0  13694-3 0  9993,2 50829  53.2147  45.4707 0001130  91.5966 268.5155 15.08845045 90557,6917.865,95.437,540.512,538.948,0.0
50829.0,STARLINK-3294,PAYLOAD,2023-08-18 20:18:59,15.08834368,9.95e-05,53.2159,41.3081,83.0156,277.095,6.0559e-05,6.76e-06,0.0,0 STARLINK-3294,1 50829U 22001AC  23230.84652084  .00000676  00000-0  60559-4 0  9994,2 50829  53.2159  41.3081 0000995  83.0156 277.0950 15.08834368 90694,6917.898,95.438,540.451,539.074,0.0
50829.0,STARLINK-3294,PAYLOAD,2023-08-20 10:28:14,15.08838444,0.0001105,53.214,34.1701,72.7377,287.3736,0.000178,2.546e-05,0.0,0 STARLINK-3294,1 50829U 22001AC  23232.43628138  .00002546  00000-0  17800-3 0  9992,2 50829  53.2140  34.1701 0001105  72.7377 287.3736 15.08838444 90939,6917.885,95.438,540.515,538.986,0.0
50829.0,STARLINK-3294,PAYLOAD,2023-08-21 18:15:57,15.08850105,0.0001001,53.2174,28.2247,83.7256,276.385,0.00039946,6.077e-05,0.0,0 STARLINK-3294,1 50829U 22001AC  23233.76107726  .00006077  00000-0  39946-3 0  9992,2 50829  53.2174  28.2247 0001001  83.7256 276.3850 15.08850105 91134,6917.85,95.437,540.407,539.022,0.0
50829.0,STARLINK-3294,PAYLOAD,2023-08-21 23:02:06,15.0886034,9.03e-05,53.2172,27.3314,87.9116,272.1979,0.00068041,0.00010563,0.0,0 STARLINK-3294,1 50829U 22001AC  23233.95979389  .00010563  00000-0  68041-3 0  9998,2 50829  53.2172  27.3314 0000903  87.9116 272.1979 15.08860340 91169,6917.818,95.436,540.308,539.059,0.0
50829.0,STARLINK-3294,PAYLOAD,2023-08-22 19:42:08,15.08848803,0.0002761,53.2178,23.4656,59.5263,300.6001,0.00080679,0.00012579,0.0,0 STARLINK-3294,1 50829U 22001AC  23234.82092598  .00012579  00000-0  80679-3 0  9993,2 50829  53.2178  23.4656 0002761  59.5263 300.6001 15.08848803 91290,6917.853,95.437,541.629,537.808,0.0
50829.0,STARLINK-3294,PAYLOAD,2023-08-24 17:48:18,15.08848071,0.0001323,53.2189,14.8395,103.309,256.805,0.00052671,8.106e-05,0.0,0 STARLINK-3294,1 50829U 22001AC  23236.74188207  .00008106  00000-0  52671-3 0  9991,2 50829  53.2189  14.8395 0001323 103.3090 256.8050 15.08848071 91580,6917.856,95.437,540.636,538.805,0.0
